{
"type": "FeatureCollection",
"name": "centroid_1",
"crs": { "type": "name", "properties": { "name": "urn:ogc:def:crs:OGC:1.3:CRS84" } },
"features": [
{ "type": "Feature", "properties": { "full_id": "w166764173", "osm_id": "166764173", "amenity": "arts_centre", "description": "The Livery is a very versatile venue in Lexington.\nOriginally, it was the city's largest stable for horses and carriages riding in and out of town. the original brick and rafters have been restored and it makes any event perfect!\n", "website": "https://www.yelp.com/biz/the-livery-lexington", "addr:street": "238 E Main St\nLexington, KY 40507", "name": "The Livery" }, "geometry": { "type": "Point", "coordinates": [ -84.494742040810721, 38.043746985980299 ] } },
{ "type": "Feature", "properties": { "full_id": "w243507320", "osm_id": "243507320", "amenity": "theatre", "description": "Moondance Amphitheater is an outdoor venue with tiered grass levels managed by Lexington Parks & Recreation. It offers live music and community events featuring local, regional and national talent.", "website": "http://www.moondancelex.com/", "addr:street": "200 E. Main St.\nLexington, KY 40507", "name": "MoonDance Amphitheater" }, "geometry": { "type": "Point", "coordinates": [ -84.558470288404081, 38.017529299809802 ] } },
{ "type": "Feature", "properties": { "full_id": "w257141679", "osm_id": "257141679", "amenity": "arts_centre", "description": "It is a multipurpose venue in Lexington that hosts a variety of performances, exhibitions, and events.", "website": "https://www.lexingtonky.gov/playing/facilities/pam-miller-downtown-arts-center", "addr:street": "141 E Main St, Lexington, KY 40507", "name": "Downtown Arts Center" }, "geometry": { "type": "Point", "coordinates": [ -84.495967925701834, 38.045855537385933 ] } },
{ "type": "Feature", "properties": { "full_id": "w262893293", "osm_id": "262893293", "amenity": "gallery", "description": "One of the oldest contemporary fine art galleries in Lexington, New Editions Gallery is recognized for the individuality of their artists and the exceptional quality of their work.\n\nOpening in 1988, the gallery is now located in the heart of downtown one block off Main Street and Broadway, featuring two floors of well-lit exhibit space.", "website": "https://neweditionsgallery.com", "addr:street": "500 W Short St, Lexington, KY 40507", "name": "New Editions Gallery" }, "geometry": { "type": "Point", "coordinates": [ -84.500357960818732, 38.050214457424964 ] } },
{ "type": "Feature", "properties": { "full_id": "w314021891", "osm_id": "314021891", "amenity": "theatre", "description": "Central Kentucky's professional ballet company with internationally renowned, world class dancers and flourishing academy.", "website": "https://www.kyballet.com", "addr:street": "740 National Avenue, Suite 170\nLexington KY, 40502 ", "name": "Kentucky Ballet Theatre" }, "geometry": { "type": "Point", "coordinates": [ -84.479004671372408, 38.039611038598522 ] } },
{ "type": "Feature", "properties": { "full_id": "w397730764", "osm_id": "397730764", "amenity": "sculpture", "description": "Bowman, the Wildcat sculpture, stands for the pride students, alumni and employees share and serves as a friendly ambassador to campus visitors", "website": "https://uknow.uky.edu/campus-news/bowman-newest-wildcat", "addr:street": "University of Kentucky", "name": "Wildcat" }, "geometry": { "type": "Point", "coordinates": [ -84.501324446542199, 38.038870794378127 ] } },
{ "type": "Feature", "properties": { "full_id": "w402015410", "osm_id": "402015410", "amenity": "theatre", "description": "The Lyric Theatre & Cultural Arts Center: A Living Legacy Reborn", "website": "https://historiclyrictheatre.com/events/", "addr:street": "300 E. Third Street\nLexington, KY 40508", "name": "Lyric Theater" }, "geometry": { "type": "Point", "coordinates": [ -84.489252124076131, 38.046013781841097 ] } },
{ "type": "Feature", "properties": { "full_id": "w402065248", "osm_id": "402065248", "amenity": "theatre", "description": "Long-running community theater presenting a variety of productions in an intimate setting with free parking.", "website": "https://www.studioplayers.org", "addr:street": "154 W Bell Ct, Lexington, KY 40508", "name": "Carriage House Theatre" }, "geometry": { "type": "Point", "coordinates": [ -84.485811511636882, 38.03965405052233 ] } },
{ "type": "Feature", "properties": { "full_id": "w402994137", "osm_id": "402994137", "amenity": "theatre", "description": "Relaxed venue offering local and national music acts across various genres, plus craft beers and cocktails.", "website": "https://theburlky.com", "addr:street": "375 Thompson Rd, Lexington, KY 40508", "name": "The Burl" }, "geometry": { "type": "Point", "coordinates": [ -84.518878863905755, 38.056989505209351 ] } },
{ "type": "Feature", "properties": { "full_id": "w406532758", "osm_id": "406532758", "amenity": "theatre", "description": "Listed on the National Register of Historic Places and the Charter Member of the League of the Historic American Theatres, the Lexington Opera House is one of the premiere performing arts centers in the region.", "website": "https://www.centralbankcenter.com/lexington-opera-house/", "addr:street": "401 W Short St Lexington, KY 40507", "name": "Lexington Opera House" }, "geometry": { "type": "Point", "coordinates": [ -84.499188663601032, 38.050002102977217 ] } }
]
}
